[
    {
        "CCSDS_OMM_VERS": "3.0",
        "COMMENT": "GENERATED VIA SPACE-TRACK.ORG API",
        "CREATION_DATE": "2025-03-02T18:08:23",
        "ORIGINATOR": "18 SPCS",
        "OBJECT_NAME": "BEIDOU 3 G4",
        "OBJECT_ID": "2023-066A",
        "CENTER_NAME": "EARTH",
        "REF_FRAME": "TEME",
        "TIME_SYSTEM": "UTC",
        "MEAN_ELEMENT_THEORY": "SGP4",
        "EPOCH": "2025-03-02T13:45:30.144384",
        "MEAN_MOTION": "1.00270925",
        "ECCENTRICITY": "0.00017210",
        "INCLINATION": "1.4833",
        "RA_OF_ASC_NODE": "290.1728",
        "ARG_OF_PERICENTER": "232.2763",
        "MEAN_ANOMALY": "4.5564",
        "EPHEMERIS_TYPE": "0",
        "CLASSIFICATION_TYPE": "U",
        "NORAD_CAT_ID": "56564",
        "ELEMENT_SET_NO": "999",
        "REV_AT_EPOCH": "666",
        "BSTAR": "0.00000000000000",
        "MEAN_MOTION_DOT": "-0.00000115",
        "MEAN_MOTION_DDOT": "0.0000000000000",
        "SEMIMAJOR_AXIS": "42164.973",
        "PERIOD": "1436.109",
        "APOAPSIS": "35794.095",
        "PERIAPSIS": "35779.581",
        "OBJECT_TYPE": "PAYLOAD",
        "RCS_SIZE": "LARGE",
        "COUNTRY_CODE": "PRC",
        "LAUNCH_DATE": "2023-05-17",
        "SITE": "XSC",
        "DECAY_DATE": null,
        "FILE": "4657142",
        "GP_ID": "282094340",
        "TLE_LINE0": "0 BEIDOU 3 G4",
        "TLE_LINE1": "1 56564U 23066A   25061.57326556 -.00000115  00000-0  00000-0 0  9994",
        "TLE_LINE2": "2 56564   1.4833 290.1728 0001721 232.2763   4.5564  1.00270925  6660"
    }
]